id,street,city,state,zip
1,1477 Kennedy Alley,Dayton,OH,45440
2,5 Trailsway Point,Dayton,OH,45430
3,715 Cambridge Park,Dayton,OH,45405
4,131 Nevada Drive,Dayton,OH,45390
5,47572 Shelley Lane,Dayton,OH,45459
6,51982 Arizona Trail,Dayton,OH,45432
7,6592 Macpherson Pass,Dayton,OH,45390
8,87202 Bay Drive,Dayton,OH,45419
9,1884 Mcguire Avenue,Dayton,OH,45415
10,791 Bartillon Avenue,Dayton,OH,
11,82583 Crest Line Junction,Dayton,OH,45430
12,3653 Miller Pass,Dayton,OH,45423
13,99 Nancy Court,Dayton,OH,45405
14,464 Bay Center,Dayton,OH,45417
15,5 Hayes Court,Dayton,OH,45419
16,84 Mayfield Parkway,Dayton,OH,45430
17,31 Jenna Drive,Dayton,OH,45416
18,36 Texas Drive,Dayton,OH,45431
19,55913 Scoville Terrace,Dayton,OH,45419
20,91528 New Castle Parkway,Dayton,OH,45433
21,66579 American Way,Dayton,OH,
22,287 Bluejay Crossing,Dayton,OH,45432
23,97541 Glacier Hill Court,Dayton,OH,45440
24,5 Carpenter Hill,Dayton,OH,45440
25,8 International Junction,Dayton,OH,45414
26,82 Mandrake Court,Dayton,OH,45402
27,54 Moland Hill,Dayton,OH,45432
28,9730 Ryan Terrace,Dayton,OH,45439
29,37856 Esch Drive,Dayton,OH,45409
30,6 Chinook Crossing,Dayton,OH,45417
31,14 Buell Center,Dayton,OH,45432
32,73 Pankratz Parkway,Dayton,OH,45426
33,66534 Novick Terrace,Dayton,OH,45416
34,58 Manley Circle,Dayton,OH,45419
35,92 Larry Circle,Dayton,OH,45417
36,581 Roth Junction,Dayton,OH,45409
37,8 Fieldstone Circle,Dayton,OH,45405
38,844 Arkansas Trail,Dayton,OH,45404
39,0 Transport Terrace,Dayton,OH,45402
40,0456 Barby Junction,Dayton,OH,45390
41,526 Green Alley,Dayton,OH,45416
42,7446 Buena Vista Pass,Dayton,OH,45390
43,68 Sherman Point,Dayton,OH,45479
44,20761 Utah Pass,Dayton,OH,45403
45,87 Sugar Court,Dayton,OH,45431
46,3 Dawn Way,,OH,45405
47,6 Reindahl Lane,Dayton,OH,45434
48,15852 Crowley Alley,Dayton,OH,45419
49,69492 Fisk Avenue,Dayton,OH,45405
50,5621 Browning Park,Dayton,OH,45409
51,8852 Carpenter Way,Dayton,OH,45410
52,5 Schurz Street,Dayton,OH,
53,782 Granby Trail,Dayton,OH,45432
54,651 Darwin Street,Dayton,OH,45430
55,04663 Pond Street,Dayton,OH,45433
56,7 Johnson Center,Dayton,OH,45415
57,85 Milwaukee Point,Dayton,OH,45429
58,68210 Amoth Pass,Dayton,OH,45405
59,1 Mockingbird Trail,Dayton,OH,45406
60,8 Quincy Drive,Dayton,OH,45430
61,556 New Castle Road,Dayton,OH,45417
62,6353 Forest Drive,Dayton,OH,45430
63,18 Mayer Circle,Dayton,OH,45426
64,92 Bashford Pass,Dayton,OH,45439
65,49 Schiller Circle,Dayton,OH,45434
66,0 Utah Court,Dayton,OH,45419
67,31621 Golf Course Parkway,Dayton,OH,45449
68,547 Glendale Hill,,OH,45414
69,36 Victoria Parkway,Dayton,OH,45410
70,17 Warrior Circle,Dayton,OH,45405
71,056 Katie Plaza,Dayton,OH,45440
72,6178 Starling Alley,Dayton,OH,45424
73,804 Manitowish Trail,Dayton,OH,45403
74,4595 Fairfield Way,Dayton,OH,45458
75,4 Crescent Oaks Court,Dayton,OH,45432
76,6926 Grayhawk Court,Dayton,OH,45440
77,46 Hovde Pass,Dayton,OH,45459
78,97938 Fremont Hill,Dayton,OH,45426
79,90164 Graceland Parkway,,OH,45434
80,14 Melody Crossing,Dayton,OH,45439
81,9470 Cody Alley,Dayton,OH,45434
82,1047 Aberg Street,Dayton,OH,45410
83,75750 Shoshone Hill,Dayton,OH,45458
84,81632 Tennyson Center,Dayton,OH,45433
85,7710 Lawn Crossing,Dayton,OH,45459
86,8 Oxford Pass,Dayton,OH,45414
87,52 Morning Lane,Dayton,OH,45433
88,2 Corry Drive,Dayton,,45459
89,7 Bay Park,Dayton,OH,45405
90,6927 Basil Trail,Dayton,OH,45430
91,63 Truax Avenue,Dayton,OH,45479
92,55 Ludington Pass,,OH,45406
93,9200 Northport Street,Dayton,OH,45414
94,75602 Dottie Place,Dayton,OH,45410
95,768 Sycamore Court,Dayton,OH,45409
96,1 Farwell Center,Dayton,OH,45430
97,25 Red Cloud Plaza,Dayton,OH,45406
98,2750 Kipling Place,Dayton,OH,45458
99,27343 American Plaza,Dayton,OH,45424
100,89748 Golf View Alley,Dayton,OH,45404
101,7 Arapahoe Court,Dayton,OH,45409
102,711 Farragut Hill,Dayton,OH,45423
103,4 Service Trail,Dayton,OH,45431
104,3597 Victoria Crossing,Dayton,OH,45449
105,888 Division Terrace,Dayton,OH,45424
106,2607 North Plaza,Dayton,,45449
107,930 Summer Ridge Junction,Dayton,OH,45449
108,3 Rieder Parkway,Dayton,OH,45403
109,0 Knutson Lane,Dayton,OH,45432
110,3 Sullivan Way,Dayton,OH,45432
111,183 Muir Crossing,Dayton,OH,45434
112,1 Longview Trail,Dayton,OH,45402
113,19 Longview Terrace,,OH,45415
114,081 Pepper Wood Lane,Dayton,OH,45410
115,968 Pine View Center,Dayton,OH,45410
116,940 Comanche Avenue,Dayton,OH,
117,881 Buell Pass,Dayton,OH,45405
118,365 Ridge Oak Park,Dayton,OH,45404
119,897 South Way,Dayton,OH,45410
120,4 Twin Pines Way,Dayton,OH,45430
121,3039 Stone Corner Place,Dayton,OH,45390
122,92 Dryden Point,Dayton,OH,45390
123,15114 Birchwood Avenue,Dayton,OH,45420
124,18841 Gale Alley,Dayton,OH,45416
125,06349 Kingsford Alley,Dayton,OH,45390
126,58683 John Wall Plaza,Dayton,OH,45414
127,11 Warrior Hill,Dayton,OH,45440
128,28 Fulton Crossing,Dayton,OH,45417
129,735 Moulton Way,Dayton,OH,45403
130,550 Blue Bill Park Center,Dayton,OH,45415
131,408 Shelley Park,Dayton,OH,45417
132,5304 Forest Dale Avenue,Dayton,OH,45479
133,14786 Bunting Trail,Dayton,OH,45458
134,55 Tomscot Way,Dayton,OH,45406
135,029 Barby Place,Dayton,OH,45405
136,508 Corry Court,Dayton,OH,45406
137,9 Gerald Place,Dayton,OH,45416
138,95 Elmside Circle,Dayton,OH,45459
139,7560 Schiller Junction,Dayton,OH,45430
140,3 Forest Dale Place,Dayton,OH,45440
141,047 Cody Alley,Dayton,OH,45390
142,13 Lakeland Lane,Dayton,OH,45415
143,86761 Eagan Point,Dayton,OH,45414
144,536 Amoth Court,Dayton,OH,45440
145,80 Melody Avenue,Dayton,OH,45404
146,27 Wayridge Center,Dayton,OH,45390
147,5 Parkside Hill,Dayton,OH,
148,23937 Dennis Drive,Dayton,OH,45434
149,1733 Hovde Way,Dayton,OH,45410
150,9081 Lyons Center,Dayton,OH,45433
151,3002 Holy Cross Place,Dayton,OH,45390
152,18850 Southridge Circle,Dayton,OH,45403
153,55746 Sullivan Junction,Dayton,OH,
154,28198 Gulseth Avenue,Dayton,OH,45434
155,018 Esker Place,Dayton,OH,
156,71 Old Shore Way,Dayton,OH,45458
157,6 Westerfield Terrace,Dayton,OH,45423
158,400 Butterfield Parkway,Dayton,OH,45459
159,7191 Bluejay Street,Dayton,OH,45439
160,50 Summer Ridge Parkway,Dayton,OH,45423
161,85311 Little Fleur Plaza,Dayton,OH,45433
162,382 Nevada Place,Dayton,OH,45431
163,76 Dexter Point,Dayton,OH,45404
164,20481 Barby Drive,Dayton,OH,45433
165,31 Scott Park,Dayton,OH,
166,76296 Scoville Place,Dayton,OH,45434
167,78 West Alley,Dayton,OH,45429
168,187 Prentice Hill,Dayton,OH,
169,34 Arkansas Parkway,Dayton,OH,45390
170,38340 Lawn Point,Dayton,OH,45430
171,2965 Ludington Point,Dayton,OH,45431
172,5 Meadow Ridge Plaza,Dayton,OH,45432
173,46 Service Parkway,Dayton,OH,45403
174,543 Thackeray Terrace,Dayton,OH,45431
175,2 High Crossing Way,Dayton,OH,45419
176,7 Waywood Point,Dayton,OH,45404
177,43393 Bluestem Point,Dayton,OH,45419
178,9 Emmet Way,Dayton,OH,45403
179,8355 Anthes Crossing,Dayton,OH,45417
180,01 Carberry Parkway,Dayton,OH,45430
181,04418 Londonderry Drive,Dayton,OH,45406
182,221 Huxley Lane,Dayton,OH,45449
183,85 Mallard Plaza,Dayton,OH,45417
184,67221 Lerdahl Hill,Dayton,OH,45416
185,574 Rusk Hill,Dayton,OH,45423
186,67 Carberry Circle,Dayton,OH,45423
187,1 Monument Circle,Dayton,OH,45404
188,606 Schurz Crossing,Dayton,OH,45430
189,01 Erie Court,Dayton,OH,45405
190,37935 Dottie Point,,OH,45415
191,28421 Northview Plaza,Dayton,OH,45459
192,120 Amoth Junction,Dayton,OH,45410
193,54389 Ruskin Court,Dayton,OH,45402
194,07416 Sherman Avenue,Dayton,OH,
195,539 Buena Vista Drive,Dayton,OH,45426
196,133 Lawn Circle,Dayton,OH,45459
197,572 Heath Avenue,Dayton,,45430
198,12477 Moulton Road,,OH,45402
199,6 Nobel Way,Dayton,OH,45426
200,85649 Helena Place,Dayton,OH,45423
201,4811 Dwight Junction,Dayton,OH,45440
202,837 Lighthouse Bay Avenue,Dayton,OH,45404
203,3 Huxley Street,Dayton,OH,45431
204,7097 Memorial Trail,Dayton,OH,45426
205,9868 Doe Crossing Junction,Dayton,OH,45433
206,805 7th Parkway,Dayton,OH,45419
207,111 Merchant Parkway,Dayton,OH,45405
208,3 Schmedeman Way,Dayton,OH,45416
209,862 Forest Run Court,Dayton,OH,45459
210,0898 Blue Bill Park Road,Dayton,OH,45406
211,124 Duke Junction,Dayton,OH,45406
212,68895 Schlimgen Court,Dayton,OH,45426
213,30 Myrtle Pass,Dayton,OH,45423
214,6273 Bluejay Point,Dayton,OH,45424
215,06730 Steensland Junction,Dayton,OH,45439
216,522 Golf View Crossing,,,45416
217,94 Farmco Terrace,Dayton,OH,45434
218,50156 Bartelt Park,Dayton,OH,45409
219,39700 4th Drive,Dayton,OH,45429
220,40628 Linden Point,Dayton,OH,45406
221,75776 Maywood Road,Dayton,OH,45459
222,3612 Donald Hill,Dayton,OH,45433
223,65 Fulton Road,Dayton,OH,45426
224,4 Dryden Crossing,Dayton,OH,45406
225,9530 Merry Plaza,Dayton,OH,
226,03 Maryland Avenue,Dayton,OH,45406
227,6 Del Sol Plaza,Dayton,OH,45419
228,6829 Pleasure Point,Dayton,OH,45414
229,3809 Eliot Court,Dayton,OH,45459
230,60 Anzinger Way,Dayton,OH,45417
231,25 Miller Center,Dayton,,45431
232,57698 Lakeland Circle,Dayton,OH,45439
233,491 Summit Street,Dayton,OH,45402
234,835 Jay Terrace,Dayton,OH,45434
235,3 Alpine Way,Dayton,OH,45458
236,263 Meadow Vale Place,Dayton,OH,45434
237,8004 Caliangt Trail,Dayton,OH,45403
238,795 Dunning Trail,Dayton,OH,45431
239,89 Chive Crossing,Dayton,OH,45420
240,30 Pepper Wood Alley,Dayton,OH,45405
241,5 Pleasure Way,,OH,45458
242,3 Fair Oaks Parkway,Dayton,OH,45424
243,44828 Meadow Valley Circle,Dayton,OH,45416
244,84 Kennedy Avenue,Dayton,OH,45416
245,557 Helena Crossing,Dayton,OH,45410
246,89 Gulseth Terrace,Dayton,OH,45440
247,2 Vera Pass,Dayton,OH,45403
248,69 Stang Court,Dayton,OH,45430
249,8321 Tony Terrace,Dayton,OH,45410
250,463 Anhalt Pass,Dayton,OH,45423
251,7935 Novick Pass,Dayton,OH,45416
252,7 Packers Point,Dayton,OH,45403
253,5613 Stephen Hill,Dayton,OH,45404
254,08 Toban Place,Dayton,OH,45423
255,20 Londonderry Crossing,Dayton,OH,45429
256,1346 Graceland Park,Dayton,OH,45440
257,7 Katie Junction,Dayton,OH,45433
258,4 Trailsway Park,Dayton,OH,45405
259,2627 Butternut Hill,Dayton,OH,45424
260,792 Dakota Pass,Dayton,OH,45432
261,734 Hoepker Trail,Dayton,OH,45405
262,48 Basil Place,Dayton,OH,45430
263,44 Hanson Alley,Dayton,OH,45431
264,636 Aberg Parkway,Dayton,OH,
265,53603 Marcy Terrace,Dayton,OH,45431
266,377 Utah Place,Dayton,OH,45410
267,8 Novick Street,Dayton,OH,45406
268,0700 Arizona Alley,Dayton,OH,45430
269,469 Esker Street,Dayton,OH,45424
270,039 Village Center,Dayton,OH,45415
271,1 Lake View Parkway,Dayton,OH,45429
272,05756 Talisman Avenue,Dayton,OH,45439
273,46 6th Lane,Dayton,OH,45410
274,001 Village Green Lane,Dayton,OH,45403
275,6085 Leroy Avenue,Dayton,OH,45390
276,01972 Red Cloud Center,Dayton,OH,
277,97 Loftsgordon Terrace,Dayton,OH,45403
278,25 Del Mar Court,Dayton,OH,45405
279,88782 Dawn Drive,Dayton,OH,45424
280,11 Lawn Street,Dayton,OH,
281,22504 Packers Junction,Dayton,OH,45403
282,02 Northview Drive,Dayton,OH,45458
283,6517 Merry Junction,Dayton,OH,45415
284,7 6th Center,Dayton,OH,45417
285,628 Kipling Avenue,Dayton,OH,45432
286,00558 Moland Point,Dayton,OH,45405
287,567 Barnett Road,Dayton,OH,45403
288,3266 Ryan Pass,Dayton,OH,45430
289,23 Eastlawn Crossing,Dayton,OH,45405
290,18 Cody Court,Dayton,OH,45419
291,50860 Roth Lane,Dayton,OH,45410
292,5 Sundown Pass,Dayton,OH,45479
293,34 Nobel Alley,Dayton,OH,45426
294,8370 Morrow Hill,Dayton,OH,45432
295,2314 Arkansas Lane,Dayton,OH,45402
296,2 Mccormick Alley,Dayton,OH,45410
297,69 Messerschmidt Drive,Dayton,OH,45432
298,2 Prairieview Lane,Dayton,OH,45409
299,0 Killdeer Pass,Dayton,OH,45431
300,8 Tennyson Crossing,Dayton,OH,45429
301,46 Calypso Point,Dayton,OH,45459
302,7571 Washington Park,,OH,45440
303,8 Bobwhite Lane,Dayton,OH,45424
304,480 Prairie Rose Avenue,Dayton,OH,45459
305,04 Bartelt Junction,Dayton,OH,45433
306,61122 Dovetail Point,Dayton,OH,45414
307,8 Eagle Crest Way,Dayton,OH,45403
308,6495 Banding Terrace,Dayton,OH,45423
309,114 Laurel Drive,Dayton,OH,45449
310,5 Pleasure Street,Dayton,OH,45414
311,0 Briar Crest Hill,Dayton,OH,45430
312,27191 Oak Valley Place,Dayton,OH,45426
313,77 Warner Trail,Dayton,OH,45417
314,9696 Towne Alley,Dayton,OH,45434
315,9479 Lawn Drive,Dayton,OH,45458
316,5 Leroy Avenue,Dayton,OH,45429
317,9 Emmet Junction,Dayton,OH,45479
318,2540 Coolidge Circle,Dayton,OH,45406
319,73554 Susan Plaza,Dayton,OH,45439
320,9 Grayhawk Terrace,Dayton,OH,45431
321,876 Ryan Road,Dayton,OH,45404
322,46115 West Street,Dayton,OH,45405
323,86 Manitowish Alley,Dayton,OH,45410
324,539 Warbler Circle,,OH,45406
325,0225 Tennyson Pass,Dayton,OH,45416
326,377 Bluejay Plaza,Dayton,OH,45409
327,7838 6th Alley,Dayton,OH,45430
328,75000 Anthes Point,Dayton,,45390
329,38278 Hovde Terrace,Dayton,OH,45429
330,2 Linden Street,Dayton,OH,45390
331,9 Arizona Avenue,Dayton,OH,45402
332,70904 Lotheville Circle,Dayton,OH,45414
333,8 Toban Alley,Dayton,OH,45404
334,7198 Nevada Hill,Dayton,OH,45433
335,135 Oakridge Terrace,Dayton,OH,
336,390 Green Center,Dayton,OH,45414
337,8973 Hallows Circle,Dayton,OH,45417
338,37629 Porter Road,Dayton,OH,45390
339,90252 Bowman Pass,Dayton,OH,45440
340,6970 Esch Circle,Dayton,OH,45424
341,720 Fairview Junction,Dayton,OH,45423
342,56408 Roxbury Crossing,Dayton,OH,45423
343,670 Anhalt Trail,Dayton,OH,45406
344,70583 Coolidge Terrace,Dayton,OH,45402
345,090 Sommers Center,Dayton,OH,
346,677 Comanche Parkway,Dayton,OH,
347,533 North Parkway,Dayton,OH,45424
348,9144 Autumn Leaf Plaza,Dayton,OH,45423
349,7 Ryan Crossing,Dayton,OH,45417
350,2098 Red Cloud Circle,Dayton,OH,45403
351,71705 Fair Oaks Street,Dayton,OH,45459
352,37 Washington Point,Dayton,OH,45406
353,2169 Knutson Drive,,OH,45426
354,91 Kingsford Circle,Dayton,OH,45430
355,87 Westport Court,Dayton,OH,45423
356,86 Sage Street,Dayton,OH,45406
357,5264 Surrey Street,Dayton,OH,45439
358,21 Golf Course Circle,Dayton,OH,45405
359,1 Center Lane,Dayton,OH,45440
360,09 Westridge Point,Dayton,OH,45424
361,5178 Butterfield Center,Dayton,OH,45439
362,2110 Burning Wood Park,Dayton,OH,45402
363,14 Calypso Point,Dayton,OH,45479
364,88522 Corben Hill,Dayton,OH,45479
365,1821 Southridge Point,Dayton,OH,45423
366,6316 Vahlen Terrace,Dayton,OH,45429
367,0 Dahle Terrace,Dayton,OH,45390
368,584 Ludington Terrace,Dayton,OH,45390
369,62 Walton Plaza,Dayton,OH,45419
370,00848 Bonner Park,Dayton,OH,45426
371,65543 Spaight Place,Dayton,OH,45390
372,1107 Derek Crossing,Dayton,OH,45402
373,215 Mendota Plaza,Dayton,OH,45416
374,9 Roth Place,Dayton,OH,45409
375,0 Mifflin Avenue,Dayton,OH,45415
376,60317 Autumn Leaf Plaza,Dayton,OH,45417
377,2 Charing Cross Point,Dayton,OH,45426
378,2 Grayhawk Center,Dayton,OH,45459
379,82939 Pond Way,Dayton,OH,45420
380,3568 Buell Road,Dayton,OH,45429
381,9055 Dawn Circle,Dayton,OH,45402
382,6475 Ohio Street,Dayton,,45434
383,0871 Northridge Court,Dayton,OH,45414
384,14346 Carpenter Park,Dayton,OH,45458
385,0 Cascade Park,Dayton,OH,
386,09674 Annamark Plaza,Dayton,OH,45410
387,5440 Hermina Junction,Dayton,OH,45479
388,7 Maywood Crossing,Dayton,OH,45429
389,9504 Straubel Pass,Dayton,OH,45479
390,86 Anhalt Avenue,Dayton,OH,45416
391,9128 Harbort Lane,Dayton,OH,45440
392,91 Moulton Plaza,Dayton,OH,45429
393,09237 Hoffman Road,Dayton,OH,45434
394,6 Old Gate Pass,Dayton,OH,45429
395,770 Rieder Lane,Dayton,OH,45440
396,78073 Shopko Point,Dayton,OH,45403
397,031 Fairview Hill,Dayton,OH,45406
398,456 Anthes Park,Dayton,OH,45423
399,0 Pearson Center,Dayton,OH,45409
400,66 Buena Vista Avenue,Dayton,OH,45423
401,5 Hoard Lane,Dayton,OH,45420
402,0 Kinsman Alley,Dayton,OH,45406
403,997 Mccormick Road,Dayton,OH,45417
404,067 Grasskamp Trail,Dayton,OH,45420
405,606 Moose Avenue,Dayton,OH,45406
406,893 West Crossing,Dayton,OH,45403
407,55 8th Drive,Dayton,OH,45430
408,2563 Stone Corner Trail,Dayton,OH,45434
409,69 Esker Drive,Dayton,OH,45431
410,6365 Independence Crossing,Dayton,OH,45417
411,27 Fordem Alley,Dayton,OH,45426
412,59 Cascade Crossing,Dayton,,45479
413,48534 Linden Point,Dayton,OH,45420
414,21 Cherokee Trail,Dayton,OH,45390
415,7 Grover Street,Dayton,OH,45432
416,73 Hollow Ridge Drive,Dayton,OH,45439
417,53433 Fisk Park,Dayton,OH,
418,98 Bobwhite Park,Dayton,OH,45459
419,18168 Pierstorff Court,Dayton,OH,45434
420,0126 Namekagon Street,Dayton,OH,45458
421,56 Northport Center,Dayton,OH,45449
422,0 Fieldstone Park,Dayton,OH,45449
423,067 Magdeline Place,Dayton,OH,45416
424,90749 Scoville Avenue,Dayton,OH,45409
425,47 Portage Court,Dayton,OH,
426,95857 Center Parkway,,OH,45459
427,249 Larry Junction,Dayton,OH,
428,21004 5th Court,Dayton,,45404
429,434 Hudson Road,Dayton,OH,45415
430,1666 Londonderry Way,Dayton,OH,45406
431,2223 Debra Alley,Dayton,OH,45390
432,289 Dixon Court,Dayton,OH,45449
433,5144 Waubesa Trail,Dayton,,45403
434,13 Brickson Park Alley,Dayton,OH,45420
435,8833 Hoepker Center,Dayton,OH,45458
436,1 Linden Pass,Dayton,OH,45420
437,19 American Ash Crossing,Dayton,OH,
438,824 Shasta Circle,Dayton,OH,
439,038 Chive Pass,Dayton,OH,
440,9 Vermont Pass,Dayton,OH,45424
441,76 Meadow Ridge Alley,Dayton,OH,45440
442,0489 Montana Center,Dayton,OH,45439
443,1856 Pankratz Trail,Dayton,OH,45449
444,74 Hagan Terrace,Dayton,OH,45429
445,0294 Montana Pass,Dayton,OH,45404
446,09 Katie Plaza,Dayton,OH,
447,532 Victoria Alley,Dayton,OH,
448,86651 Florence Center,Dayton,OH,45403
449,645 Pierstorff Plaza,Dayton,,45458
450,2010 Mccormick Plaza,Dayton,OH,45409
451,2 Mariners Cove Place,Dayton,OH,45434
452,404 Marquette Alley,Dayton,OH,
453,6657 Crest Line Road,Dayton,OH,45430
454,4434 Comanche Road,Dayton,OH,45424
455,32340 Ridgeview Avenue,Dayton,,45420
456,36 Boyd Road,Dayton,OH,45414
457,198 Vera Avenue,Dayton,OH,45420
458,6564 Schurz Court,Dayton,OH,45433
459,479 Tennessee Junction,Dayton,OH,45430
460,64 Bluejay Junction,Dayton,OH,45429
461,362 Tennessee Trail,Dayton,OH,45440
462,113 Luster Lane,Dayton,OH,45402
463,56 Milwaukee Plaza,Dayton,OH,45432
464,1736 8th Road,Dayton,OH,45426
465,0 Clyde Gallagher Junction,Dayton,OH,45415
466,9 Golf Court,Dayton,OH,45410
467,8 Lunder Hill,Dayton,OH,45417
468,76927 Spohn Court,Dayton,OH,45430
469,27 Manitowish Street,Dayton,OH,45479
470,49087 Homewood Drive,Dayton,OH,45404
471,84 Carpenter Place,Dayton,OH,45406
472,54 Anderson Street,Dayton,OH,45439
473,8 Mitchell Circle,Dayton,OH,45414
474,0 Gina Hill,Dayton,,45439
475,549 Merry Hill,Dayton,OH,45423
476,06 Dawn Court,Dayton,OH,45416
477,7 Lunder Trail,Dayton,OH,45439
478,704 Barnett Avenue,Dayton,OH,45479
479,24 Tennessee Park,Dayton,OH,45431
480,8357 Carioca Trail,Dayton,OH,45420
481,1401 Johnson Junction,Dayton,OH,45458
482,44 Manley Way,Dayton,OH,45458
483,0887 Vahlen Place,Dayton,OH,45430
484,122 Larry Way,Dayton,OH,45431
485,5 Nancy Trail,Dayton,OH,45429
486,40357 Rutledge Place,Dayton,OH,45423
487,26 Cardinal Park,Dayton,,45404
488,84 Tomscot Plaza,Dayton,OH,45404
489,870 Sauthoff Trail,Dayton,OH,45458
490,4122 Monument Hill,Dayton,OH,45416
491,0 Holy Cross Avenue,Dayton,OH,45424
492,348 Lawn Place,Dayton,OH,45406
493,22366 Sycamore Park,Dayton,OH,
494,9691 Haas Center,Dayton,OH,45402
495,21572 Dryden Park,Dayton,OH,45439
496,19297 Knutson Lane,Dayton,OH,45459
497,835 Norway Maple Trail,Dayton,OH,45429
498,7 Butterfield Parkway,Dayton,OH,45404
499,48865 Ilene Park,Dayton,OH,45439
500,8 Schlimgen Road,Dayton,,45449
501,959 Glendale Park,Dayton,OH,45409
502,45 Anhalt Park,Dayton,OH,45414
503,058 Grasskamp Place,Dayton,OH,45440
504,205 Crowley Hill,Dayton,OH,
505,205 Twin Pines Hill,Dayton,OH,45403
506,549 Larry Drive,Dayton,OH,45458
507,0202 Ridge Oak Crossing,Dayton,OH,45390
508,2583 American Circle,Dayton,OH,45409
509,733 Graceland Crossing,Dayton,OH,45414
510,20532 Menomonie Lane,Dayton,OH,45449
511,44 Kensington Place,Dayton,OH,45423
512,0815 Lukken Junction,Dayton,OH,45430
513,97878 Reinke Way,Dayton,OH,45439
514,63 Dakota Park,Dayton,OH,45426
515,989 Larry Way,Dayton,OH,
516,8 Anderson Terrace,Dayton,OH,45390
517,05667 Donald Street,Dayton,OH,45417
518,9129 Ronald Regan Street,Dayton,OH,45409
519,97740 Barby Trail,Dayton,OH,45433
520,2 Bellgrove Lane,Dayton,OH,45426
521,607 Utah Junction,Dayton,OH,45414
522,06 Golden Leaf Pass,Dayton,OH,45424
523,6 Dixon Hill,Dayton,OH,45459
524,36 Dakota Circle,Dayton,OH,
525,63 Graedel Point,Dayton,OH,45406
526,77568 Sutteridge Street,Dayton,OH,45423
527,5461 Gale Lane,Dayton,OH,45402
528,1 Fordem Pass,Dayton,OH,45405
529,50947 Monica Point,Dayton,OH,45424
530,34863 Lakewood Alley,Dayton,OH,45420
531,2 Dottie Place,Dayton,OH,45419
532,07 Anhalt Lane,Dayton,OH,45423
533,8928 Brentwood Plaza,Dayton,OH,45420
534,3 Dawn Point,Dayton,OH,45449
535,67 Oak Valley Terrace,Dayton,OH,
536,801 Green Way,Dayton,OH,45423
537,193 Pierstorff Road,Dayton,OH,45434
538,12 Kennedy Way,Dayton,OH,45424
539,6680 Waywood Plaza,Dayton,OH,45402
540,00975 Blue Bill Park Place,Dayton,OH,45432
541,84300 Waxwing Pass,Dayton,OH,45423
542,87497 Northridge Terrace,Dayton,OH,45403
543,08049 Muir Street,Dayton,OH,45432
544,93 Michigan Street,Dayton,OH,45402
545,073 Gale Park,Dayton,OH,45431
546,893 Esch Trail,Dayton,OH,45433
547,118 Northview Court,Dayton,OH,45409
548,30 Jana Center,Dayton,OH,45417
549,210 Stoughton Crossing,Dayton,OH,45414
550,5 Sunbrook Alley,Dayton,OH,45426
551,0392 Kensington Street,Dayton,OH,45434
552,741 Stone Corner Trail,Dayton,OH,45416
553,53 Gulseth Alley,Dayton,OH,45390
554,83 Nevada Pass,Dayton,OH,45417
555,94 Crescent Oaks Place,Dayton,OH,45420
556,504 Gateway Park,,OH,45406
557,70475 Eagan Street,Dayton,OH,45419
558,865 Maple Wood Place,Dayton,OH,
559,8 Lillian Court,Dayton,OH,45440
560,117 Sullivan Drive,Dayton,OH,45431
561,193 East Drive,Dayton,OH,45430
562,820 Reinke Way,Dayton,OH,
563,336 Hauk Park,Dayton,OH,45426
564,35275 Atwood Street,Dayton,OH,45404
565,53 Aberg Crossing,Dayton,OH,45415
566,42 Crownhardt Road,Dayton,OH,45415
567,42 Hollow Ridge Drive,Dayton,OH,45410
568,05 Bashford Circle,Dayton,OH,45439
569,18584 3rd Point,Dayton,OH,45423
570,88 Chive Parkway,Dayton,OH,45426
571,8418 Kim Alley,Dayton,OH,45403
572,039 Old Gate Lane,Dayton,OH,45415
573,6037 Mitchell Road,Dayton,OH,45390
574,51742 Surrey Crossing,Dayton,OH,
575,13795 Waywood Drive,Dayton,OH,45459
576,10759 Milwaukee Plaza,Dayton,OH,45424
577,86 Larry Pass,Dayton,OH,45406
578,9542 Browning Parkway,Dayton,OH,45415
579,720 Towne Hill,Dayton,OH,45459
580,8215 Chinook Center,Dayton,OH,45458
581,9037 Petterle Lane,Dayton,OH,45433
582,5718 Miller Place,,OH,45416
583,7906 Warner Terrace,Dayton,OH,45430
584,70126 Tomscot Court,Dayton,OH,45430
585,21539 Summer Ridge Point,Dayton,OH,45420
586,45450 Monica Court,Dayton,,45423
587,70755 Hallows Street,Dayton,OH,45459
588,0 Blackbird Park,Dayton,OH,45458
589,56 Chive Park,Dayton,OH,45419
590,8784 Donald Way,Dayton,OH,45423
591,60 Loomis Lane,Dayton,OH,45410
592,0394 Susan Circle,Dayton,OH,45459
593,3 Forest Run Center,Dayton,OH,45409
594,62 5th Point,Dayton,OH,45409
595,43 Crescent Oaks Drive,Dayton,OH,45458
596,06 Dapin Terrace,Dayton,OH,45405
597,49801 Everett Hill,Dayton,OH,45414
598,1 Ridgeview Pass,Dayton,OH,
599,22212 Nancy Crossing,Dayton,OH,45409
600,573 Monica Road,Dayton,OH,45416
601,18456 Crownhardt Court,Dayton,OH,45419
602,56 Scoville Crossing,Dayton,OH,45406
603,74878 Spohn Trail,Dayton,OH,45430
604,9843 Bartillon Place,Dayton,OH,45415
605,9627 Esch Park,Dayton,OH,45433
606,623 Service Plaza,Dayton,OH,45405
607,4820 Center Place,Dayton,OH,45402
608,810 Glendale Point,Dayton,OH,45430
609,73302 Heath Junction,Dayton,OH,45414
610,0 Hansons Avenue,,OH,45458
611,526 Holy Cross Point,Dayton,OH,45434
612,0711 Arkansas Lane,Dayton,OH,45409
613,8010 Menomonie Plaza,Dayton,OH,45406
614,8 Lakeland Street,Dayton,OH,45479
615,63 Jenifer Junction,Dayton,OH,45404
616,9 Raven Center,Dayton,OH,45402
617,6 Delladonna Court,Dayton,OH,45424
618,27745 Melody Center,Dayton,OH,45432
619,5801 Heath Center,Dayton,OH,45433
620,859 Westridge Terrace,Dayton,OH,45439
621,655 Nelson Avenue,Dayton,OH,45479
622,0706 Bonner Drive,Dayton,OH,45405
623,6575 Tomscot Place,Dayton,OH,45417
624,37 Barby Street,Dayton,OH,
625,0885 Monument Point,Dayton,OH,
626,07 Lerdahl Park,Dayton,OH,45415
627,34 International Court,Dayton,OH,45404
628,4 Union Crossing,Dayton,OH,45430
629,014 Columbus Point,Dayton,OH,45420
630,0409 Katie Point,Dayton,OH,45430
631,851 West Junction,Dayton,,45409
632,9 Fallview Drive,Dayton,OH,45402
633,648 Florence Street,Dayton,OH,45390
634,938 Clyde Gallagher Center,Dayton,OH,45459
635,44 Lakeland Alley,Dayton,OH,45420
636,75593 Bashford Center,Dayton,,45420
637,93 Eliot Street,Dayton,OH,45406
638,11192 Di Loreto Alley,Dayton,OH,45405
639,5 Nancy Court,Dayton,OH,45416
640,99 Reinke Pass,Dayton,OH,45434
641,45 Ridgeview Place,Dayton,OH,45414
642,7918 John Wall Road,Dayton,OH,45439
643,06 Melvin Street,Dayton,OH,45414
644,8621 Surrey Plaza,Dayton,OH,45458
645,68275 La Follette Road,Dayton,OH,45439
646,157 Pleasure Road,Dayton,OH,45417
647,46144 Ridgeview Way,Dayton,OH,45429
648,6242 Forster Circle,Dayton,OH,45416
649,6460 Spohn Avenue,Dayton,OH,45449
650,798 Vahlen Center,,OH,45419
651,625 Pleasure Place,Dayton,OH,45402
652,0003 Starling Road,Dayton,OH,45449
653,9081 Mesta Circle,Dayton,,
654,9736 Bonner Point,Dayton,OH,45415
655,1 Jackson Hill,Dayton,OH,45440
656,705 Muir Alley,Dayton,OH,45426
657,1 Brown Parkway,Dayton,OH,45419
658,92919 Pawling Way,Dayton,OH,45404
659,8217 Holy Cross Way,Dayton,OH,45406
660,427 American Avenue,Dayton,OH,45458
661,2589 Lukken Crossing,Dayton,OH,45432
662,8300 Grayhawk Place,Dayton,OH,45434
663,367 2nd Crossing,Dayton,,45429
664,07702 Little Fleur Drive,Dayton,OH,45433
665,8 Fair Oaks Lane,Dayton,OH,45415
666,6397 Loomis Point,Dayton,OH,45431
667,2606 Vernon Street,Dayton,OH,
668,9694 Buena Vista Drive,Dayton,OH,45439
669,05874 Victoria Way,Dayton,,45449
670,99942 5th Street,Dayton,OH,45449
671,43379 Norway Maple Trail,Dayton,OH,45406
672,9 Fallview Court,Dayton,OH,45417
673,9872 Eliot Street,Dayton,OH,45458
674,4604 Dayton Park,Dayton,OH,45429
675,13789 Anderson Trail,Dayton,OH,45410
676,16 Caliangt Trail,Dayton,OH,45402
677,644 Hintze Lane,Dayton,OH,45458
678,7 Crest Line Court,Dayton,OH,45424
679,0 Farmco Junction,Dayton,OH,45459
680,76 Red Cloud Way,Dayton,OH,45404
681,4 Mockingbird Hill,Dayton,OH,45406
682,6 Delladonna Street,Dayton,OH,45415
683,85 Helena Place,Dayton,,45415
684,9 Declaration Trail,Dayton,OH,45459
685,432 Sunbrook Crossing,Dayton,OH,45458
686,554 Sunfield Pass,Dayton,OH,45419
687,85347 Havey Parkway,Dayton,OH,45429
688,1755 Sycamore Plaza,Dayton,OH,45426
689,133 Lindbergh Trail,Dayton,OH,45405
690,18 Burning Wood Terrace,Dayton,OH,
691,092 Declaration Junction,Dayton,OH,
692,8 Dahle Pass,Dayton,OH,45420
693,66341 Mcbride Hill,Dayton,OH,45434
694,88 Hollow Ridge Court,Dayton,OH,45440
695,44 3rd Hill,Dayton,OH,45458
696,648 Ludington Court,Dayton,OH,45404
697,3776 Fieldstone Court,Dayton,OH,45414
698,23164 Westerfield Parkway,Dayton,OH,45439
699,285 Loomis Trail,Dayton,OH,45419
700,8707 Vahlen Junction,Dayton,OH,45458
701,80006 Reinke Drive,Dayton,OH,45479
702,45906 Butternut Pass,Dayton,OH,45404
703,186 Victoria Road,Dayton,OH,45434
704,1764 Stephen Way,Dayton,OH,
705,65732 Oriole Road,Dayton,OH,45431
706,1565 Sachs Road,Dayton,OH,45426
707,4246 Lawn Circle,Dayton,OH,45431
708,9299 Petterle Circle,Dayton,OH,45415
709,28 Redwing Road,Dayton,OH,45409
710,2365 Larry Drive,Dayton,OH,45433
711,66250 Main Way,Dayton,OH,45406
712,1 Corry Court,Dayton,OH,
713,234 Oriole Terrace,Dayton,OH,45415
714,838 6th Center,Dayton,OH,45403
715,624 Ilene Junction,Dayton,OH,45410
716,58 Garrison Place,Dayton,OH,45440
717,8 Gulseth Lane,Dayton,OH,45439
718,67896 Lyons Circle,Dayton,,45439
719,54898 Kings Hill,Dayton,,45405
720,923 Havey Way,Dayton,OH,45404
721,3203 Alpine Court,Dayton,OH,45434
722,233 Evergreen Street,,OH,45459
723,7 1st Street,Dayton,,45405
724,81 Anzinger Place,Dayton,,45479
725,04 Norway Maple Center,Dayton,OH,45420
726,137 Nelson Alley,Dayton,OH,45434
727,6 Lien Point,Dayton,OH,45417
728,15 Manitowish Parkway,Dayton,,45431
729,4816 Fallview Alley,Dayton,OH,45403
730,0455 Norway Maple Center,Dayton,OH,45449
731,3836 Mockingbird Plaza,Dayton,OH,45406
732,198 Algoma Court,Dayton,OH,
733,72010 Springview Avenue,Dayton,OH,45433
734,128 Huxley Circle,Dayton,OH,45415
735,83413 Merry Lane,Dayton,OH,45433
736,88740 Parkside Center,Dayton,OH,
737,5 Shoshone Court,Dayton,OH,
738,6 Del Sol Court,Dayton,OH,45432
739,639 Rieder Avenue,Dayton,OH,45405
740,8 Granby Lane,Dayton,OH,45405
741,629 Ridgeway Parkway,Dayton,OH,45403
742,0 Crescent Oaks Hill,Dayton,OH,45390
743,18 David Hill,Dayton,OH,45434
744,589 High Crossing Street,Dayton,OH,45420
745,9 Buena Vista Hill,Dayton,OH,45430
746,23 Lakeland Parkway,Dayton,OH,45429
747,6977 Porter Plaza,Dayton,OH,45417
748,9016 Norway Maple Center,Dayton,OH,45404
749,4454 Eastlawn Park,Dayton,OH,45414
750,956 Loftsgordon Center,Dayton,OH,45429
751,8 Menomonie Pass,Dayton,OH,
752,40416 Farmco Junction,Dayton,OH,45433
753,98 Prentice Terrace,Dayton,OH,45440
754,3 Valley Edge Court,Dayton,OH,45429
755,00732 Scoville Lane,Dayton,OH,45430
756,222 Service Place,Dayton,OH,45424
757,51 Eagle Crest Place,Dayton,OH,45423
758,062 Vernon Avenue,Dayton,OH,45405
759,29 Novick Junction,Dayton,OH,45405
760,12866 2nd Trail,Dayton,OH,45420
761,9 Kensington Center,Dayton,OH,45419
762,24490 Randy Circle,Dayton,OH,45415
763,2957 Dixon Center,Dayton,OH,45406
764,31 Heath Road,Dayton,OH,45479
765,187 Katie Hill,Dayton,OH,45409
766,84 Bunting Circle,Dayton,OH,45439
767,79 Stuart Hill,Dayton,OH,45419
768,1108 Fairview Court,Dayton,OH,45410
769,15276 Erie Alley,Dayton,OH,45423
770,023 Anniversary Park,Dayton,OH,45403
771,714 Old Shore Point,Dayton,OH,45409
772,85 Fairfield Trail,Dayton,OH,45414
773,16371 Cherokee Junction,Dayton,,45426
774,8 Debra Center,Dayton,OH,45479
775,5 Bashford Road,Dayton,OH,45479
776,7 Lindbergh Junction,Dayton,OH,45433
777,25 Straubel Lane,Dayton,OH,45420
778,75132 Di Loreto Parkway,Dayton,OH,45431
779,910 Cardinal Alley,Dayton,OH,
780,38 Corben Center,,OH,45432
781,25 Riverside Lane,Dayton,OH,45424
782,3 Mayer Circle,Dayton,OH,45410
783,8 Bowman Center,Dayton,OH,45419
784,377 Talisman Avenue,Dayton,OH,45432
785,212 Hoffman Street,Dayton,OH,45434
786,1 Straubel Trail,Dayton,OH,45432
787,9 Express Pass,Dayton,OH,45420
788,916 Buena Vista Pass,Dayton,OH,45426
789,0234 Di Loreto Lane,Dayton,OH,45433
790,438 6th Lane,Dayton,OH,45440
791,452 Milwaukee Street,Dayton,OH,45423
792,63 Gerald Lane,Dayton,OH,45404
793,9 Cambridge Terrace,Dayton,OH,45431
794,247 Anthes Point,Dayton,OH,45410
795,80619 Del Sol Lane,Dayton,OH,45414
796,767 Arkansas Parkway,Dayton,OH,45429
797,8 Warner Avenue,Dayton,OH,45404
798,61 Graedel Hill,Dayton,OH,45434
799,00 Caliangt Park,Dayton,OH,45426
800,63 Florence Park,Dayton,OH,45430
801,3726 Brown Place,Dayton,OH,45419
802,6 3rd Road,Dayton,OH,45406
803,08 Westridge Road,Dayton,OH,
804,7 Michigan Court,Dayton,OH,45432
805,373 Erie Junction,Dayton,OH,45449
806,102 Lyons Road,Dayton,OH,45416
807,7 Schurz Court,Dayton,OH,45406
808,71 Gerald Parkway,Dayton,OH,45403
809,68 Del Mar Avenue,Dayton,OH,45414
810,23 Arkansas Center,Dayton,,45431
811,215 Hermina Way,Dayton,OH,45402
812,6058 Ohio Avenue,Dayton,OH,45416
813,578 Glendale Road,Dayton,OH,45432
814,89 Pawling Way,Dayton,OH,45459
815,4 Fallview Hill,Dayton,OH,45416
816,5 Northridge Way,Dayton,OH,45410
817,17 Randy Avenue,Dayton,OH,45404
818,9359 Del Mar Crossing,Dayton,OH,45402
819,3360 Dunning Alley,Dayton,OH,45420
820,01 Westend Road,Dayton,,45431
821,31 Fieldstone Trail,Dayton,OH,45440
822,475 Comanche Way,Dayton,OH,45479
823,40052 Holmberg Drive,Dayton,OH,45439
824,99341 Eggendart Parkway,Dayton,OH,45409
825,3527 3rd Center,Dayton,OH,45458
826,82883 Havey Place,Dayton,OH,
827,0 Sauthoff Street,Dayton,OH,45479
828,4 Lighthouse Bay Alley,Dayton,OH,45405
829,08299 Westerfield Street,Dayton,OH,45410
830,9 Butterfield Terrace,Dayton,OH,45409
831,488 South Hill,Dayton,OH,
832,214 Little Fleur Point,Dayton,OH,
833,7 8th Trail,,OH,45449
834,40832 Sherman Road,Dayton,OH,45459
835,1 Coolidge Park,Dayton,OH,45431
836,6 Red Cloud Point,Dayton,OH,45424
837,42186 Corscot Park,Dayton,OH,45417
838,9 Graceland Road,Dayton,OH,45402
839,0952 Evergreen Circle,Dayton,OH,45423
840,652 Golf Avenue,Dayton,OH,45415
841,9 Mariners Cove Point,Dayton,OH,45458
842,905 Clyde Gallagher Avenue,Dayton,OH,45404
843,4233 Cordelia Junction,Dayton,OH,45458
844,88 Macpherson Place,Dayton,OH,45415
845,696 Esker Circle,Dayton,OH,45404
846,02233 Welch Place,Dayton,OH,45415
847,0111 Milwaukee Drive,Dayton,OH,45410
848,340 Saint Paul Park,Dayton,OH,45415
849,93941 Arizona Way,Dayton,OH,45429
850,0 Maple Street,Dayton,OH,45434
851,137 Banding Way,Dayton,OH,45414
852,6 Spenser Road,Dayton,OH,45420
853,5 Oakridge Trail,Dayton,,45390
854,8 Monica Park,Dayton,OH,45416
855,21 Browning Lane,Dayton,OH,45449
856,60945 Mockingbird Trail,,OH,
857,55863 Haas Place,Dayton,OH,45416
858,76887 Hoffman Circle,Dayton,OH,45429
859,04 Burrows Pass,Dayton,OH,45415
860,097 Carioca Park,Dayton,OH,45402
861,94597 Eliot Hill,Dayton,OH,45429
862,08 Boyd Hill,Dayton,OH,45402
863,22 Briar Crest Street,Dayton,OH,45434
864,9 Knutson Park,Dayton,OH,45409
865,04 Carpenter Pass,Dayton,OH,45449
866,9 Artisan Junction,Dayton,OH,45390
867,06750 Dryden Point,Dayton,OH,45424
868,12 Bartillon Pass,Dayton,OH,45402
869,83740 8th Park,Dayton,OH,45403
870,89488 Springs Road,Dayton,OH,
871,6708 Morningstar Park,Dayton,OH,45431
872,84040 Sunbrook Way,Dayton,OH,45409
873,374 Milwaukee Park,Dayton,OH,45439
874,97797 Arrowood Crossing,Dayton,OH,45416
875,3 Glacier Hill Point,Dayton,OH,45405
876,793 Westend Hill,Dayton,OH,45403
877,40 Mosinee Plaza,Dayton,OH,45404
878,57 Artisan Junction,Dayton,OH,45433
879,80890 Cardinal Lane,Dayton,OH,45430
880,412 Moose Pass,Dayton,OH,45410
881,98 Coleman Court,Dayton,OH,45439
882,921 International Point,Dayton,OH,45440
883,00592 Carpenter Court,Dayton,OH,45404
884,86 Oak Valley Road,Dayton,OH,45414
885,65600 Sugar Street,Dayton,OH,45414
886,146 Commercial Way,Dayton,OH,45419
887,705 Heath Alley,Dayton,OH,45390
888,24109 Blaine Pass,Dayton,OH,
889,69833 Lakewood Gardens Way,Dayton,OH,45405
890,1863 Larry Hill,Dayton,OH,45409
891,10 Vernon Park,Dayton,OH,45424
892,5 Ramsey Avenue,Dayton,OH,45403
893,3152 Westport Park,Dayton,OH,45405
894,0520 Homewood Plaza,Dayton,OH,45416
895,61 Meadow Valley Center,Dayton,OH,45440
896,199 Badeau Pass,Dayton,OH,45420
897,5341 Cambridge Court,Dayton,OH,45415
898,80 Darwin Alley,Dayton,OH,45430
899,37 Sutteridge Crossing,Dayton,OH,45459
900,6 Jenifer Avenue,Dayton,OH,45406
901,685 Declaration Lane,Dayton,OH,45419
902,624 Washington Parkway,Dayton,OH,45439
903,5069 Pennsylvania Alley,Dayton,OH,
904,469 Comanche Junction,Dayton,OH,45415
905,72 Toban Street,Dayton,OH,45433
906,1756 Esch Circle,Dayton,OH,45415
907,74239 Heffernan Point,Dayton,OH,45479
908,812 1st Hill,Dayton,OH,45430
909,3019 Daystar Trail,,OH,45390
910,9 Talisman Road,Dayton,OH,45429
911,5182 Stuart Way,Dayton,OH,45402
912,98171 Rowland Place,Dayton,OH,45429
913,75779 Becker Street,Dayton,OH,45439
914,68196 Carioca Trail,Dayton,OH,45432
915,166 Mendota Street,Dayton,OH,45431
916,35 Stephen Park,Dayton,OH,45420
917,9180 Michigan Terrace,Dayton,OH,45409
918,97 Dunning Street,Dayton,OH,45390
919,8 Oriole Terrace,Dayton,OH,45410
920,95805 Cottonwood Court,Dayton,OH,45416
921,8210 Heath Place,Dayton,OH,45479
922,272 Paget Terrace,Dayton,OH,45432
923,33 Boyd Avenue,Dayton,OH,45424
924,364 Bartelt Plaza,Dayton,OH,45390
925,3 Ilene Pass,Dayton,OH,
926,3 Buena Vista Junction,Dayton,OH,45414
927,34 Rieder Hill,Dayton,OH,45439
928,3590 Arrowood Road,Dayton,OH,45432
929,8 Tennessee Road,Dayton,,45409
930,2363 Schurz Place,Dayton,OH,45424
931,7 Manitowish Lane,Dayton,OH,45414
932,04596 Quincy Lane,Dayton,OH,45404
933,72 5th Plaza,Dayton,OH,
934,2 Evergreen Terrace,Dayton,OH,45416
935,4 Homewood Plaza,Dayton,OH,45410
936,0 Dixon Way,Dayton,OH,45440
937,577 Graedel Avenue,Dayton,OH,45419
938,818 Macpherson Drive,Dayton,OH,45403
939,4715 Manufacturers Point,Dayton,OH,
940,5 Dixon Crossing,Dayton,OH,45409
941,2041 Oakridge Junction,Dayton,OH,45430
942,221 Atwood Center,Dayton,OH,45459
943,054 Troy Avenue,Dayton,OH,45432
944,7729 Mayer Plaza,Dayton,OH,45410
945,715 Pearson Drive,Dayton,OH,45404
946,52 Sunfield Terrace,Dayton,OH,45390
947,544 Golden Leaf Center,Dayton,OH,45429
948,2547 Comanche Pass,Dayton,OH,45410
949,311 Arrowood Parkway,Dayton,OH,45423
950,8 Kim Court,Dayton,OH,45417
951,570 Carpenter Terrace,Dayton,OH,45430
952,5343 Lakewood Gardens Park,Dayton,OH,45458
953,065 Sutherland Hill,Dayton,OH,45405
954,4418 Cody Center,Dayton,OH,45409
955,6 Transport Center,Dayton,OH,45402
956,3102 Karstens Alley,Dayton,OH,45402
957,2 Stephen Drive,Dayton,OH,45417
958,479 Loomis Avenue,Dayton,OH,45449
959,0 Golf Course Pass,Dayton,OH,45459
960,19 Calypso Place,Dayton,OH,45429
961,8349 Hintze Alley,Dayton,OH,45432
962,444 Gateway Drive,Dayton,OH,45439
963,5153 Mccormick Alley,Dayton,OH,45410
964,651 Algoma Parkway,Dayton,OH,45426
965,8349 Elka Plaza,Dayton,OH,45416
966,57 Bayside Hill,Dayton,OH,45458
967,06006 Union Point,Dayton,OH,45405
968,1 Buhler Terrace,Dayton,OH,45458
969,86 Sachtjen Pass,Dayton,OH,45429
970,28130 Westport Street,Dayton,OH,45417
971,1 Almo Crossing,Dayton,OH,45433
972,94 Montana Lane,Dayton,OH,45414
973,086 Riverside Way,Dayton,OH,45434
974,6 Anderson Terrace,Dayton,OH,45424
975,0 Miller Circle,Dayton,OH,45458
976,45 Manley Terrace,Dayton,OH,45414
977,8 Sutherland Pass,Dayton,OH,45409
978,0 Orin Center,Dayton,OH,45403
979,29144 Blackbird Park,Dayton,OH,45424
980,23 Schlimgen Drive,Dayton,OH,45449
981,3289 Morning Pass,Dayton,OH,45410
982,347 Carioca Road,Dayton,OH,45409
983,06388 Ridgeview Junction,Dayton,OH,45429
984,4 Vahlen Place,Dayton,OH,45402
985,73648 Meadow Valley Court,Dayton,OH,45433
986,71759 Pearson Pass,Dayton,OH,45410
987,7851 Bashford Lane,Dayton,OH,45419
988,373 Sutherland Circle,Dayton,OH,45426
989,81175 Manitowish Point,Dayton,OH,45402
990,082 Rockefeller Way,Dayton,OH,45426
991,7 Fairfield Parkway,Dayton,OH,45423
992,6918 Warrior Plaza,Dayton,OH,45429
993,522 Springs Parkway,Dayton,OH,45424
994,93 Stephen Avenue,Dayton,OH,45403
995,508 Paget Alley,Dayton,OH,45440
996,5 Becker Plaza,Dayton,OH,45458
997,48365 Farmco Hill,Dayton,OH,
998,9 Fairview Hill,Dayton,OH,45423
999,4 Lien Street,Dayton,OH,45458
1000,52 Twin Pines Way,Dayton,OH,45417
